{
    "links": {
        "self": "http://www.neowsapp.com/rest/v1/neo/3546739?api_key=iIulBulltgU6a56xZRHN4H3l9WmuAYTsLGpBGhQ2"
    },
    "id": "3546739",
    "neo_reference_id": "3546739",
    "name": "(2010 RK135)",
    "designation": "2010 RK135",
    "nasa_jpl_url": "http://ssd.jpl.nasa.gov/sbdb.cgi?sstr=3546739",
    "absolute_magnitude_h": 25.7,
    "estimated_diameter": {
        "kilometers": {
            "estimated_diameter_min": 0.0192555078,
            "estimated_diameter_max": 0.0430566244
        },
        "meters": {
            "estimated_diameter_min": 19.2555078188,
            "estimated_diameter_max": 43.0566244241
        },
        "miles": {
            "estimated_diameter_min": 0.0119648141,
            "estimated_diameter_max": 0.0267541378
        },
        "feet": {
            "estimated_diameter_min": 63.1742402722,
            "estimated_diameter_max": 141.2618956756
        }
    },
    "is_potentially_hazardous_asteroid": false,
    "close_approach_data": [
        {
            "close_approach_date": "2010-09-26",
            "close_approach_date_full": "2010-Sep-26 07:00",
            "epoch_date_close_approach": 1285484400000,
            "relative_velocity": {
                "kilometers_per_second": "7.9437240539",
                "kilometers_per_hour": "28597.4065940158",
                "miles_per_hour": "17769.3163361539"
            },
            "miss_distance": {
                "astronomical": "0.0703475657",
                "lunar": "27.3652030573",
                "kilometers": "10523845.988405059",
                "miles": "6539214.6697814542"
            },
            "orbiting_body": "Earth"
        }
    ],
    "orbital_data": {
        "orbit_id": "8",
        "orbit_determination_date": "2017-04-06 08:56:40",
        "first_observation_date": "2010-09-15",
        "last_observation_date": "2010-09-18",
        "data_arc_in_days": 3,
        "observations_used": 22,
        "orbit_uncertainty": "9",
        "minimum_orbit_intersection": ".0560394",
        "jupiter_tisserand_invariant": "3.207",
        "epoch_osculation": "2455456.5",
        "eccentricity": ".5799683587001166",
        "semi_major_axis": "2.500885830518087",
        "inclination": "4.566567916949567",
        "ascending_node_longitude": "180.6518700521158",
        "orbital_period": "1444.572109961687",
        "perihelion_distance": "1.050451180096134",
        "perihelion_argument": "198.746879788382",
        "aphelion_distance": "3.95132048094004",
        "perihelion_time": "2455478.443687503873",
        "mean_anomaly": "354.5314412157633",
        "mean_motion": ".2492087432101592",
        "equinox": "J2000",
        "orbit_class": {
            "orbit_class_type": "AMO",
            "orbit_class_description": "Near-Earth asteroid orbits similar to that of 1221 Amor",
            "orbit_class_range": "1.017 AU < q (perihelion) < 1.3 AU"
        }
    },
    "is_sentry_object": false
}